STARLETTE               
1 07646U 75010A   25084.94815907 -.00000114  00000+0  24108-4 0  9993
2 07646  49.8232  73.8706 0205606  22.2580 338.7083 13.82341334532534
LAGEOS 1                
1 08820U 76039A   25084.76490557 -.00000006  00000+0  00000+0 0  9990
2 08820 109.8626  25.7301 0044370  37.8355 346.6142  6.38665081884503
AJISAI (EGS)            
1 16908U 86061A   25084.94573231 -.00000078  00000+0  13749-3 0  9990
2 16908  50.0078  85.7207 0011309 119.3663 327.4293 12.44511303424574
COSMOS 1989 (ETALON 1)  
1 19751U 89001C   25084.90811191  .00000079  00000+0  00000+0 0  9994
2 19751  64.6923  87.5550 0023630 216.8588 276.9290  2.13156099281885
COSMOS 2024 (ETALON 2)  
1 20026U 89039C   25085.22268454 -.00000019  00000+0  00000+0 0  9991
2 20026  65.1971 325.9287 0019904 215.7725 239.8316  2.13204415278943
LAGEOS 2                
1 22195U 92070B   25065.87914605 -.00000009  00000+0  00000+0 0  9993
2 22195  52.6420 201.9779 0137132 342.8036 314.4195  6.47293977765164
STELLA                  
1 22824U 93061B   25084.94368912 -.00000015  00000+0  12318-4 0  9993
2 22824  98.8346 140.9930 0007469  99.2419 338.9153 14.27452023640826
LARETS                  
1 27944U 03042F   25085.52329858  .00000331  00000+0  73001-4 0  9998
2 27944  98.3543 234.8908 0012210 359.5713   0.5476 14.63730688147957
LARES                   
1 38077U 12006A   25084.96639283 -.00000034  00000+0  29042-4 0  9997
2 38077  69.4925 337.8513 0006496 110.8722 249.3001 12.54931697600831
LARES-2                 
1 53105U 22080A   25083.18091292  .00000029  00000+0  00000+0 0  9995
2 53105  70.1407  99.6635 0004871  73.3020 286.8250  6.38965290 62915
